{
  "links" : {
    "next" : "https://api.nasa.gov/neo/rest/v1/feed?start_date=2008-09-23&end_date=2008-09-23&detailed=true&api_key=t0TVs3DtDT2H8Oy2Zy8m2eVrNsAVKAexjcZXUckd",
    "prev" : "https://api.nasa.gov/neo/rest/v1/feed?start_date=2008-09-21&end_date=2008-09-21&detailed=true&api_key=t0TVs3DtDT2H8Oy2Zy8m2eVrNsAVKAexjcZXUckd",
    "self" : "https://api.nasa.gov/neo/rest/v1/feed?start_date=2008-09-22&end_date=2008-09-22&detailed=true&api_key=t0TVs3DtDT2H8Oy2Zy8m2eVrNsAVKAexjcZXUckd"
  },
  "element_count" : 6,
  "near_earth_objects" : {
    "2008-09-22" : [ {
      "links" : {
        "self" : "https://api.nasa.gov/neo/rest/v1/neo/3426810?api_key=t0TVs3DtDT2H8Oy2Zy8m2eVrNsAVKAexjcZXUckd"
      },
      "neo_reference_id" : "3426810",
      "name" : "(2008 RT24)",
      "nasa_jpl_url" : "http://ssd.jpl.nasa.gov/sbdb.cgi?sstr=3426810",
      "absolute_magnitude_h" : 24.4,
      "estimated_diameter" : {
        "kilometers" : {
          "estimated_diameter_min" : 0.0350392641,
          "estimated_diameter_max" : 0.0783501764
        },
        "meters" : {
          "estimated_diameter_min" : 35.0392641108,
          "estimated_diameter_max" : 78.3501764334
        },
        "miles" : {
          "estimated_diameter_min" : 0.0217723826,
          "estimated_diameter_max" : 0.0486845275
        },
        "feet" : {
          "estimated_diameter_min" : 114.9582192654,
          "estimated_diameter_max" : 257.0543928497
        }
      },
      "is_potentially_hazardous_asteroid" : false,
      "close_approach_data" : [ {
        "close_approach_date" : "2008-09-22",
        "epoch_date_close_approach" : 1222066800000,
        "relative_velocity" : {
          "kilometers_per_second" : "6.133122815",
          "kilometers_per_hour" : "22079.2421340317",
          "miles_per_hour" : "13719.1824248932"
        },
        "miss_distance" : {
          "astronomical" : "0.0740062564",
          "lunar" : "28.7884349823",
          "kilometers" : "11071179",
          "miles" : "6879311.5"
        },
        "orbiting_body" : "Earth"
      } ],
      "orbital_data" : {
        "orbit_id" : "10",
        "orbit_determination_date" : "2017-04-06 09:03:00",
        "orbit_uncertainty" : "8",
        "minimum_orbit_intersection" : ".0738452",
        "jupiter_tisserand_invariant" : "3.927",
        "epoch_osculation" : "2454716.5",
        "eccentricity" : ".4191478665851935",
        "semi_major_axis" : "1.818326815868083",
        "inclination" : "6.93747059248011",
        "ascending_node_longitude" : "162.011920128954",
        "orbital_period" : "895.5840331804251",
        "perihelion_distance" : "1.056179010242328",
        "perihelion_argument" : "212.6670979391973",
        "aphelion_distance" : "2.580474621493838",
        "perihelion_time" : "2454746.070023518089",
        "mean_anomaly" : "348.1136687657232",
        "mean_motion" : ".401972329410069",
        "equinox" : "J2000"
      }
    }, {
      "links" : {
        "self" : "https://api.nasa.gov/neo/rest/v1/neo/3427740?api_key=t0TVs3DtDT2H8Oy2Zy8m2eVrNsAVKAexjcZXUckd"
      },
      "neo_reference_id" : "3427740",
      "name" : "(2008 SF8)",
      "nasa_jpl_url" : "http://ssd.jpl.nasa.gov/sbdb.cgi?sstr=3427740",
      "absolute_magnitude_h" : 23.7,
      "estimated_diameter" : {
        "kilometers" : {
          "estimated_diameter_min" : 0.0483676488,
          "estimated_diameter_max" : 0.1081533507
        },
        "meters" : {
          "estimated_diameter_min" : 48.3676488219,
          "estimated_diameter_max" : 108.1533506775
        },
        "miles" : {
          "estimated_diameter_min" : 0.0300542543,
          "estimated_diameter_max" : 0.0672033557
        },
        "feet" : {
          "estimated_diameter_min" : 158.6865169607,
          "estimated_diameter_max" : 354.8338390368
        }
      },
      "is_potentially_hazardous_asteroid" : false,
      "close_approach_data" : [ {
        "close_approach_date" : "2008-09-22",
        "epoch_date_close_approach" : 1222066800000,
        "relative_velocity" : {
          "kilometers_per_second" : "7.0014396433",
          "kilometers_per_hour" : "25205.1827157179",
          "miles_per_hour" : "15661.520337997"
        },
        "miss_distance" : {
          "astronomical" : "0.1206571135",
          "lunar" : "46.9356193542",
          "kilometers" : "18050048",
          "miles" : "11215780"
        },
        "orbiting_body" : "Earth"
      } ],
      "orbital_data" : {
        "orbit_id" : "12",
        "orbit_determination_date" : "2017-04-06 09:02:52",
        "orbit_uncertainty" : "6",
        "minimum_orbit_intersection" : ".0920719",
        "jupiter_tisserand_invariant" : "3.034",
        "epoch_osculation" : "2458000.5",
        "eccentricity" : ".6043622492769342",
        "semi_major_axis" : "2.771324558174932",
        "inclination" : "5.955656677866814",
        "ascending_node_longitude" : "356.9472898610062",
        "orbital_period" : "1685.114875227761",
        "perihelion_distance" : "1.096440614719924",
        "perihelion_argument" : ".5286501895981682",
        "aphelion_distance" : "4.446208501629939",
        "perihelion_time" : "2458125.222912484275",
        "mean_anomaly" : "333.3547847957427",
        "mean_motion" : ".2136352870016308",
        "equinox" : "J2000"
      }
    }, {
      "links" : {
        "self" : "https://api.nasa.gov/neo/rest/v1/neo/3092291?api_key=t0TVs3DtDT2H8Oy2Zy8m2eVrNsAVKAexjcZXUckd"
      },
      "neo_reference_id" : "3092291",
      "name" : "(2001 DR8)",
      "nasa_jpl_url" : "http://ssd.jpl.nasa.gov/sbdb.cgi?sstr=3092291",
      "absolute_magnitude_h" : 18.9,
      "estimated_diameter" : {
        "kilometers" : {
          "estimated_diameter_min" : 0.4411182,
          "estimated_diameter_max" : 0.9863702813
        },
        "meters" : {
          "estimated_diameter_min" : 441.1181999969,
          "estimated_diameter_max" : 986.3702813054
        },
        "miles" : {
          "estimated_diameter_min" : 0.2740980571,
          "estimated_diameter_max" : 0.6129018881
        },
        "feet" : {
          "estimated_diameter_min" : 1447.2382352778,
          "estimated_diameter_max" : 3236.1230737181
        }
      },
      "is_potentially_hazardous_asteroid" : false,
      "close_approach_data" : [ {
        "close_approach_date" : "2008-09-22",
        "epoch_date_close_approach" : 1222066800000,
        "relative_velocity" : {
          "kilometers_per_second" : "18.3106887283",
          "kilometers_per_hour" : "65918.4794219408",
          "miles_per_hour" : "40959.1796163721"
        },
        "miss_distance" : {
          "astronomical" : "0.3607361995",
          "lunar" : "140.326385498",
          "kilometers" : "53965368",
          "miles" : "33532524"
        },
        "orbiting_body" : "Earth"
      } ],
      "orbital_data" : {
        "orbit_id" : "27",
        "orbit_determination_date" : "2016-08-07 06:15:48",
        "orbit_uncertainty" : "0",
        "minimum_orbit_intersection" : ".0793615",
        "jupiter_tisserand_invariant" : "3.598",
        "epoch_osculation" : "2457600.5",
        "eccentricity" : ".6729720464126334",
        "semi_major_axis" : "1.924331318146186",
        "inclination" : "6.582684339066895",
        "ascending_node_longitude" : "334.7540741408549",
        "orbital_period" : "975.0304949067066",
        "perihelion_distance" : ".629310132997427",
        "perihelion_argument" : "43.32414569134684",
        "aphelion_distance" : "3.219352503294945",
        "perihelion_time" : "2457667.655812187281",
        "mean_anomaly" : "335.2047833234852",
        "mean_motion" : ".3692192212249173",
        "equinox" : "J2000"
      }
    } ]
  }
}